{"type": "FeatureCollection", "features": [ {"type": "Feature", "properties": {"norad_id": 39122, "name": "EUTELSAT 117 WEST A", "group": "eutelsat", "lat": -0.025037238555327693, "lon": -122.63300445181433, "alt_km": 35776.104152980755, "timestamp": "2025-12-17T17:50:18.923391+00:00", "meta": {"OBJECT_NAME": "EUTELSAT 117 WEST A", "OBJECT_ID": "2013-012A", "EPOCH": "2025-12-17T06:53:10.084128", "MEAN_MOTION": 1.00272723, "ECCENTRICITY": 0.00027354, "INCLINATION": 0.0254, "RA_OF_ASC_NODE": 41.3562, "ARG_OF_PERICENTER": 229.2576, "MEAN_ANOMALY": 162.0441, "EPHEMERIS_TYPE": 0, "CLASSIFICATION_TYPE": "U", "NORAD_CAT_ID": 39122, "ELEMENT_SET_NO": 999, "REV_AT_EPOCH": 4660, "BSTAR": 0, "MEAN_MOTION_DOT": 1.1e-07, "MEAN_MOTION_DDOT": 0}, "tle": {"line1": "1 39122U 13012A   25351.28692227  .00000011  00000+0  00000+0 0  9998", "line2": "2 39122   0.0254  41.3562 0002735 229.2576 162.0441  1.00272723 46609"}}, "geometry": {"type": "Point", "coordinates": [-122.63300445181433, -0.025037238555327693]}}, {"type": "Feature", "properties": {"norad_id": 39163, "name": "EUTELSAT 7B", "group": "eutelsat", "lat": 0.017971975271498672, "lon": 1.225419289450294, "alt_km": 35773.22117161385, "timestamp": "2025-12-17T17:50:18.923404+00:00", "meta": {"OBJECT_NAME": "EUTELSAT 7B", "OBJECT_ID": "2013-022A", "EPOCH": "2025-12-16T23:39:43.310016", "MEAN_MOTION": 1.00270149, "ECCENTRICITY": 0.00042028, "INCLINATION": 0.0653, "RA_OF_ASC_NODE": 351.936, "ARG_OF_PERICENTER": 328.139, "MEAN_ANOMALY": 127.7401, "EPHEMERIS_TYPE": 0, "CLASSIFICATION_TYPE": "U", "NORAD_CAT_ID": 39163, "ELEMENT_SET_NO": 999, "REV_AT_EPOCH": 4612, "BSTAR": 0, "MEAN_MOTION_DOT": 7.2e-07, "MEAN_MOTION_DDOT": 0}, "tle": {"line1": "1 39163U 13022A   25350.98591794  .00000072  00000+0  00000+0 0  9994", "line2": "2 39163   0.0653 351.9360 0004202 328.1390 127.7401  1.00270149 46128"}}, "geometry": {"type": "Point", "coordinates": [1.225419289450294, 0.017971975271498672]}}, {"type": "Feature", "properties": {"norad_id": 39612, "name": "EXPRESS-AT1", "group": "eutelsat", "lat": 0.039046307125792115, "lon": 50.17477585653576, "alt_km": 35785.67190294469, "timestamp": "2025-12-17T17:50:18.923427+00:00", "meta": {"OBJECT_NAME": "EXPRESS-AT1", "OBJECT_ID": "2014-010A", "EPOCH": "2025-12-17T03:19:12.583776", "MEAN_MOTION": 1.00270022, "ECCENTRICITY": 5.834e-05, "INCLINATION": 0.017, "RA_OF_ASC_NODE": 314.4393, "ARG_OF_PERICENTER": 165.9171, "MEAN_ANOMALY": 71.4676, "EPHEMERIS_TYPE": 0, "CLASSIFICATION_TYPE": "U", "NORAD_CAT_ID": 39612, "ELEMENT_SET_NO": 999, "REV_AT_EPOCH": 4299, "BSTAR": 0, "MEAN_MOTION_DOT": 1.03e-06, "MEAN_MOTION_DDOT": 0}, "tle": {"line1": "1 39612U 14010A   25351.13834009  .00000103  00000+0  00000+0 0  9993", "line2": "2 39612   0.0170 314.4393 0000583 165.9171  71.4676  1.00270022 42993"}}, "geometry": {"type": "Point", "coordinates": [50.17477585653576, 0.039046307125792115]}}, {"type": "Feature", "properties": {"norad_id": 39613, "name": "EXPRESS-AT2", "group": "eutelsat", "lat": 0.009122886426104291, "lon": 134.04015785638956, "alt_km": 35790.9058561408, "timestamp": "2025-12-17T17:50:18.923448+00:00", "meta": {"OBJECT_NAME": "EXPRESS-AT2", "OBJECT_ID": "2014-010B", "EPOCH": "2025-12-17T05:46:46.779744", "MEAN_MOTION": 1.00272748, "ECCENTRICITY": 0.00012111, "INCLINATION": 0.0172, "RA_OF_ASC_NODE": 317.0289, "ARG_OF_PERICENTER": 347.8644, "MEAN_ANOMALY": 7.7804, "EPHEMERIS_TYPE": 0, "CLASSIFICATION_TYPE": "U", "NORAD_CAT_ID": 39613, "ELEMENT_SET_NO": 999, "REV_AT_EPOCH": 4267, "BSTAR": 0, "MEAN_MOTION_DOT": -2.56e-06, "MEAN_MOTION_DDOT": 0}, "tle": {"line1": "1 39613U 14010B   25351.24081921 -.00000256  00000+0  00000+0 0  9993", "line2": "2 39613   0.0172 317.0289 0001211 347.8644   7.7804  1.00272748 42671"}}, "geometry": {"type": "Point", "coordinates": [134.04015785638956, 0.009122886426104291]}}, {"type": "Feature", "properties": {"norad_id": 39773, "name": "EUTELSAT 3B", "group": "eutelsat", "lat": 0.003224411176851969, "lon": -2.689301890255158, "alt_km": 35796.44595345037, "timestamp": "2025-12-17T17:50:18.923461+00:00", "meta": {"OBJECT_NAME": "EUTELSAT 3B", "OBJECT_ID": "2014-030A", "EPOCH": "2025-12-17T04:46:49.192608", "MEAN_MOTION": 1.00271929, "ECCENTRICITY": 0.00042601, "INCLINATION": 0.0604, "RA_OF_ASC_NODE": 358.9684, "ARG_OF_PERICENTER": 232.645, "MEAN_ANOMALY": 289.259, "EPHEMERIS_TYPE": 0, "CLASSIFICATION_TYPE": "U", "NORAD_CAT_ID": 39773, "ELEMENT_SET_NO": 999, "REV_AT_EPOCH": 4224, "BSTAR": 0, "MEAN_MOTION_DOT": 4.4e-07, "MEAN_MOTION_DDOT": 0}, "tle": {"line1": "1 39773U 14030A   25351.19918047  .00000044  00000+0  00000+0 0  9998", "line2": "2 39773   0.0604 358.9684 0004260 232.6450 289.2590  1.00271929 42246"}}, "geometry": {"type": "Point", "coordinates": [-2.689301890255158, 0.003224411176851969]}}, {"type": "Feature", "properties": {"norad_id": 40425, "name": "EUTELSAT 115 WEST B", "group": "eutelsat", "lat": 0.012457906414973439, "lon": -120.72536794235603, "alt_km": 35785.863617822404, "timestamp": "2025-12-17T17:50:18.923473+00:00", "meta": {"OBJECT_NAME": "EUTELSAT 115 WEST B", "OBJECT_ID": "2015-010B", "EPOCH": "2025-12-16T10:53:20.776416", "MEAN_MOTION": 1.00270606, "ECCENTRICITY": 1.284e-05, "INCLINATION": 0.012, "RA_OF_ASC_NODE": 152.6665, "ARG_OF_PERICENTER": 108.4071, "MEAN_ANOMALY": 232.705, "EPHEMERIS_TYPE": 0, "CLASSIFICATION_TYPE": "U", "NORAD_CAT_ID": 40425, "ELEMENT_SET_NO": 999, "REV_AT_EPOCH": 3956, "BSTAR": 0, "MEAN_MOTION_DOT": -1e-08, "MEAN_MOTION_DDOT": 0}, "tle": {"line1": "1 40425U 15010B   25350.45371269 -.00000001  00000+0  00000+0 0  9994", "line2": "2 40425   0.0120 152.6665 0000128 108.4071 232.7050  1.00270606 39567"}}, "geometry": {"type": "Point", "coordinates": [-120.72536794235603, 0.012457906414973439]}}, {"type": "Feature", "properties": {"norad_id": 40875, "name": "EUTELSAT 8 WEST B", "group": "eutelsat", "lat": -0.003372149470179433, "lon": -13.755001640598254, "alt_km": 35782.61410475926, "timestamp": "2025-12-17T17:50:18.923485+00:00", "meta": {"OBJECT_NAME": "EUTELSAT 8 WEST B", "OBJECT_ID": "2015-039B", "EPOCH": "2025-12-17T03:00:51.840000", "MEAN_MOTION": 1.00271883, "ECCENTRICITY": 0.00043183, "INCLINATION": 0.064, "RA_OF_ASC_NODE": 350.0771, "ARG_OF_PERICENTER": 277.0116, "MEAN_ANOMALY": 216.1477, "EPHEMERIS_TYPE": 0, "CLASSIFICATION_TYPE": "U", "NORAD_CAT_ID": 40875, "ELEMENT_SET_NO": 999, "REV_AT_EPOCH": 3783, "BSTAR": 0, "MEAN_MOTION_DOT": -4.1e-07, "MEAN_MOTION_DDOT": 0}, "tle": {"line1": "1 40875U 15039B   25351.12560000 -.00000041  00000+0  00000+0 0  9996", "line2": "2 40875   0.0640 350.0771 0004318 277.0116 216.1477  1.00271883 37838"}}, "geometry": {"type": "Point", "coordinates": [-13.755001640598254, -0.003372149470179433]}}, {"type": "Feature", "properties": {"norad_id": 41310, "name": "EUTELSAT 9B", "group": "eutelsat", "lat": -0.03948234782627142, "lon": 3.2228827890961744, "alt_km": 35786.05209408729, "timestamp": "2025-12-17T17:50:18.923497+00:00", "meta": {"OBJECT_NAME": "EUTELSAT 9B", "OBJECT_ID": "2016-005A", "EPOCH": "2025-12-16T23:40:20.750592", "MEAN_MOTION": 1.00271677, "ECCENTRICITY": 0.00044885, "INCLINATION": 0.0551, "RA_OF_ASC_NODE": 69.3446, "ARG_OF_PERICENTER": 203.9712, "MEAN_ANOMALY": 176.6287, "EPHEMERIS_TYPE": 0, "CLASSIFICATION_TYPE": "U", "NORAD_CAT_ID": 41310, "ELEMENT_SET_NO": 999, "REV_AT_EPOCH": 3629, "BSTAR": 0, "MEAN_MOTION_DOT": 8.6e-07, "MEAN_MOTION_DDOT": 0}, "tle": {"line1": "1 41310U 16005A   25350.98635128  .00000086  00000+0  00000+0 0  9990", "line2": "2 41310   0.0551  69.3446 0004488 203.9712 176.6287  1.00271677 36290"}}, "geometry": {"type": "Point", "coordinates": [3.2228827890961744, -0.03948234782627142]}}, {"type": "Feature", "properties": {"norad_id": 41382, "name": "EUTELSAT 65 WEST A", "group": "eutelsat", "lat": -0.05259353640922812, "lon": -71.02384537570451, "alt_km": 35776.98951098168, "timestamp": "2025-12-17T17:50:18.923509+00:00", "meta": {"OBJECT_NAME": "EUTELSAT 65 WEST A", "OBJECT_ID": "2016-014A", "EPOCH": "2025-12-17T04:27:21.056832", "MEAN_MOTION": 1.00270306, "ECCENTRICITY": 0.00023237, "INCLINATION": 0.0573, "RA_OF_ASC_NODE": 324.7434, "ARG_OF_PERICENTER": 311.0741, "MEAN_ANOMALY": 171.8771, "EPHEMERIS_TYPE": 0, "CLASSIFICATION_TYPE": "U", "NORAD_CAT_ID": 41382, "ELEMENT_SET_NO": 999, "REV_AT_EPOCH": 3571, "BSTAR": 0, "MEAN_MOTION_DOT": -2.52e-06, "MEAN_MOTION_DDOT": 0}, "tle": {"line1": "1 41382U 16014A   25351.18566038 -.00000252  00000+0  00000+0 0  9991", "line2": "2 41382   0.0573 324.7434 0002323 311.0741 171.8771  1.00270306 35716"}}, "geometry": {"type": "Point", "coordinates": [-71.02384537570451, -0.05259353640922812]}}, {"type": "Feature", "properties": {"norad_id": 41589, "name": "EUTELSAT 117 WEST B", "group": "eutelsat", "lat": -0.016500965487024063, "lon": -122.81382225757301, "alt_km": 35785.55804357824, "timestamp": "2025-12-17T17:50:18.923521+00:00", "meta": {"OBJECT_NAME": "EUTELSAT 117 WEST B", "OBJECT_ID": "2016-038B", "EPOCH": "2025-12-16T07:41:38.671008", "MEAN_MOTION": 1.00271538, "ECCENTRICITY": 1.358e-05, "INCLINATION": 0.0424, "RA_OF_ASC_NODE": 167.2106, "ARG_OF_PERICENTER": 90.3228, "MEAN_ANOMALY": 186.0956, "EPHEMERIS_TYPE": 0, "CLASSIFICATION_TYPE": "U", "NORAD_CAT_ID": 41589, "ELEMENT_SET_NO": 999, "REV_AT_EPOCH": 3482, "BSTAR": 0, "MEAN_MOTION_DOT": 1.2e-07, "MEAN_MOTION_DDOT": 0}, "tle": {"line1": "1 41589U 16038B   25350.32058647  .00000012  00000+0  00000+0 0  9996", "line2": "2 41589   0.0424 167.2106 0000135  90.3228 186.0956  1.00271538 34824"}}, "geometry": {"type": "Point", "coordinates": [-122.81382225757301, -0.016500965487024063]}}]}